CCSDS_OMM_VERS = 2.0
CREATION_DATE  = 
ORIGINATOR     = 

OBJECT_NAME    = STARLINK-36649
OBJECT_ID      = 2026-033S
CENTER_NAME    = EARTH
REF_FRAME      = TEME
TIME_SYSTEM    = UTC
MEAN_ELEMENT_THEORY = SGP/SGP4

EPOCH          = 2026-03-14T06:00:02.000160
MEAN_MOTION    = 15.69107048
ECCENTRICITY   = .00017814
INCLINATION    = 42.9995
RA_OF_ASC_NODE = 243.5950
ARG_OF_PERICENTER = 274.8598
MEAN_ANOMALY   = 135.1114

EPHEMERIS_TYPE = 0
CLASSIFICATION_TYPE = U
NORAD_CAT_ID   = 67837
ELEMENT_SET_NO = 999
REV_AT_EPOCH   = 539
BSTAR          = -.18468906E-1
MEAN_MOTION_DOT = -.1949797E-1
MEAN_MOTION_DDOT = 0

CCSDS_OMM_VERS = 2.0
CREATION_DATE  = 
ORIGINATOR     = 

OBJECT_NAME    = STARLINK-36654
OBJECT_ID      = 2026-033T
CENTER_NAME    = EARTH
REF_FRAME      = TEME
TIME_SYSTEM    = UTC
MEAN_ELEMENT_THEORY = SGP/SGP4

EPOCH          = 2026-03-14T06:00:02.000160
MEAN_MOTION    = 15.67094007
ECCENTRICITY   = .00017575
INCLINATION    = 42.9995
RA_OF_ASC_NODE = 243.6441
ARG_OF_PERICENTER = 275.1701
MEAN_ANOMALY   = 114.9438

EPHEMERIS_TYPE = 0
CLASSIFICATION_TYPE = U
NORAD_CAT_ID   = 67838
ELEMENT_SET_NO = 999
REV_AT_EPOCH   = 539
BSTAR          = -.20014022E-1
MEAN_MOTION_DOT = -.194444E-1
MEAN_MOTION_DDOT = 0

CCSDS_OMM_VERS = 2.0
CREATION_DATE  = 
ORIGINATOR     = 

OBJECT_NAME    = STARLINK-36652
OBJECT_ID      = 2026-033U
CENTER_NAME    = EARTH
REF_FRAME      = TEME
TIME_SYSTEM    = UTC
MEAN_ELEMENT_THEORY = SGP/SGP4

EPOCH          = 2026-03-14T06:00:02.000160
MEAN_MOTION    = 15.65389571
ECCENTRICITY   = .00018442
INCLINATION    = 42.9995
RA_OF_ASC_NODE = 243.6915
ARG_OF_PERICENTER = 270.3750
MEAN_ANOMALY   = 100.8214

EPHEMERIS_TYPE = 0
CLASSIFICATION_TYPE = U
NORAD_CAT_ID   = 67839
ELEMENT_SET_NO = 999
REV_AT_EPOCH   = 539
BSTAR          = -.21474444E-1
MEAN_MOTION_DOT = -.1946066E-1
MEAN_MOTION_DDOT = 0

CCSDS_OMM_VERS = 2.0
CREATION_DATE  = 
ORIGINATOR     = 

OBJECT_NAME    = STARLINK-36651
OBJECT_ID      = 2026-033V
CENTER_NAME    = EARTH
REF_FRAME      = TEME
TIME_SYSTEM    = UTC
MEAN_ELEMENT_THEORY = SGP/SGP4

EPOCH          = 2026-03-14T06:00:02.000160
MEAN_MOTION    = 15.66916729
ECCENTRICITY   = .00017513
INCLINATION    = 42.9995
RA_OF_ASC_NODE = 243.6285
ARG_OF_PERICENTER = 272.4670
MEAN_ANOMALY   = 123.8852

EPHEMERIS_TYPE = 0
CLASSIFICATION_TYPE = U
NORAD_CAT_ID   = 67840
ELEMENT_SET_NO = 999
REV_AT_EPOCH   = 539
BSTAR          = -.20190969E-1
MEAN_MOTION_DOT = -.1947052E-1
MEAN_MOTION_DDOT = 0

CCSDS_OMM_VERS = 2.0
CREATION_DATE  = 
ORIGINATOR     = 

OBJECT_NAME    = STARLINK-36656
OBJECT_ID      = 2026-033W
CENTER_NAME    = EARTH
REF_FRAME      = TEME
TIME_SYSTEM    = UTC
MEAN_ELEMENT_THEORY = SGP/SGP4

EPOCH          = 2026-03-14T06:00:02.000160
MEAN_MOTION    = 15.68018464
ECCENTRICITY   = .00016842
INCLINATION    = 42.9993
RA_OF_ASC_NODE = 243.5837
ARG_OF_PERICENTER = 275.2687
MEAN_ANOMALY   = 139.1527

EPHEMERIS_TYPE = 0
CLASSIFICATION_TYPE = U
NORAD_CAT_ID   = 67841
ELEMENT_SET_NO = 999
REV_AT_EPOCH   = 539
BSTAR          = -.19353323E-1
MEAN_MOTION_DOT = -.1952245E-1
MEAN_MOTION_DDOT = 0

CCSDS_OMM_VERS = 2.0
CREATION_DATE  = 
ORIGINATOR     = 

OBJECT_NAME    = STARLINK-36653
OBJECT_ID      = 2026-033X
CENTER_NAME    = EARTH
REF_FRAME      = TEME
TIME_SYSTEM    = UTC
MEAN_ELEMENT_THEORY = SGP/SGP4

EPOCH          = 2026-03-14T06:00:02.000160
MEAN_MOTION    = 15.67008128
ECCENTRICITY   = .00017432
INCLINATION    = 42.9997
RA_OF_ASC_NODE = 243.6039
ARG_OF_PERICENTER = 274.6626
MEAN_ANOMALY   = 131.4430

EPHEMERIS_TYPE = 0
CLASSIFICATION_TYPE = U
NORAD_CAT_ID   = 67842
ELEMENT_SET_NO = 999
REV_AT_EPOCH   = 539
BSTAR          = -.20096123E-1
MEAN_MOTION_DOT = -.1945401E-1
MEAN_MOTION_DDOT = 0

CCSDS_OMM_VERS = 2.0
CREATION_DATE  = 
ORIGINATOR     = 

OBJECT_NAME    = STARLINK-36589
OBJECT_ID      = 2026-033Y
CENTER_NAME    = EARTH
REF_FRAME      = TEME
TIME_SYSTEM    = UTC
MEAN_ELEMENT_THEORY = SGP/SGP4

EPOCH          = 2026-03-14T06:00:02.000160
MEAN_MOTION    = 15.68059224
ECCENTRICITY   = .00016934
INCLINATION    = 42.9995
RA_OF_ASC_NODE = 243.5607
ARG_OF_PERICENTER = 276.5133
MEAN_ANOMALY   = 146.9307

EPHEMERIS_TYPE = 0
CLASSIFICATION_TYPE = U
NORAD_CAT_ID   = 67843
ELEMENT_SET_NO = 999
REV_AT_EPOCH   = 539
BSTAR          = -.19333303E-1
MEAN_MOTION_DOT = -.1953379E-1
MEAN_MOTION_DDOT = 0

CCSDS_OMM_VERS = 2.0
CREATION_DATE  = 
ORIGINATOR     = 

OBJECT_NAME    = STARLINK-36598
OBJECT_ID      = 2026-033Z
CENTER_NAME    = EARTH
REF_FRAME      = TEME
TIME_SYSTEM    = UTC
MEAN_ELEMENT_THEORY = SGP/SGP4

EPOCH          = 2026-03-14T06:00:02.000160
MEAN_MOTION    = 15.64835528
ECCENTRICITY   = .00017465
INCLINATION    = 42.9993
RA_OF_ASC_NODE = 243.6578
ARG_OF_PERICENTER = 272.8733
MEAN_ANOMALY   = 111.6476

EPHEMERIS_TYPE = 0
CLASSIFICATION_TYPE = U
NORAD_CAT_ID   = 67844
ELEMENT_SET_NO = 999
REV_AT_EPOCH   = 539
BSTAR          = -.21950511E-1
MEAN_MOTION_DOT = -.1945211E-1
MEAN_MOTION_DDOT = 0

CCSDS_OMM_VERS = 2.0
CREATION_DATE  = 
ORIGINATOR     = 

OBJECT_NAME    = STARLINK-36606
OBJECT_ID      = 2026-033AA
CENTER_NAME    = EARTH
REF_FRAME      = TEME
TIME_SYSTEM    = UTC
MEAN_ELEMENT_THEORY = SGP/SGP4

EPOCH          = 2026-03-14T06:00:02.000160
MEAN_MOTION    = 15.71560297
ECCENTRICITY   = .00015145
INCLINATION    = 42.9992
RA_OF_ASC_NODE = 243.4476
ARG_OF_PERICENTER = 278.3846
MEAN_ANOMALY   = 190.4131

EPHEMERIS_TYPE = 0
CLASSIFICATION_TYPE = U
NORAD_CAT_ID   = 67845
ELEMENT_SET_NO = 999
REV_AT_EPOCH   = 539
BSTAR          = -.16778937E-1
MEAN_MOTION_DOT = -.1963023E-1
MEAN_MOTION_DDOT = 0

CCSDS_OMM_VERS = 2.0
CREATION_DATE  = 
ORIGINATOR     = 

OBJECT_NAME    = STARLINK-36658
OBJECT_ID      = 2026-033AB
CENTER_NAME    = EARTH
REF_FRAME      = TEME
TIME_SYSTEM    = UTC
MEAN_ELEMENT_THEORY = SGP/SGP4

EPOCH          = 2026-03-14T06:00:02.000160
MEAN_MOTION    = 15.65298233
ECCENTRICITY   = .00016891
INCLINATION    = 42.9997
RA_OF_ASC_NODE = 243.6193
ARG_OF_PERICENTER = 274.9315
MEAN_ANOMALY   = 124.8623

EPHEMERIS_TYPE = 0
CLASSIFICATION_TYPE = U
NORAD_CAT_ID   = 67846
ELEMENT_SET_NO = 999
REV_AT_EPOCH   = 539
BSTAR          = -.21545235E-1
MEAN_MOTION_DOT = -.194525E-1
MEAN_MOTION_DDOT = 0

CCSDS_OMM_VERS = 2.0
CREATION_DATE  = 
ORIGINATOR     = 

OBJECT_NAME    = STARLINK-36618
OBJECT_ID      = 2026-033AC
CENTER_NAME    = EARTH
REF_FRAME      = TEME
TIME_SYSTEM    = UTC
MEAN_ELEMENT_THEORY = SGP/SGP4

EPOCH          = 2026-03-14T00:00:02.000160
MEAN_MOTION    = 15.91465079
ECCENTRICITY   = .00029072
INCLINATION    = 42.9786
RA_OF_ASC_NODE = 242.2524
ARG_OF_PERICENTER = 312.0221
MEAN_ANOMALY   = 166.4508

EPHEMERIS_TYPE = 0
CLASSIFICATION_TYPE = U
NORAD_CAT_ID   = 67847
ELEMENT_SET_NO = 999
REV_AT_EPOCH   = 535
BSTAR          = .24095398E-3
MEAN_MOTION_DOT = .78163E-3
MEAN_MOTION_DDOT = .10604233E-4

CCSDS_OMM_VERS = 2.0
CREATION_DATE  = 
ORIGINATOR     = 

OBJECT_NAME    = STARLINK-36660
OBJECT_ID      = 2026-033AD
CENTER_NAME    = EARTH
REF_FRAME      = TEME
TIME_SYSTEM    = UTC
MEAN_ELEMENT_THEORY = SGP/SGP4

EPOCH          = 2026-03-14T06:00:02.000160
MEAN_MOTION    = 15.63851442
ECCENTRICITY   = .00017948
INCLINATION    = 42.9994
RA_OF_ASC_NODE = 243.6620
ARG_OF_PERICENTER = 270.6301
MEAN_ANOMALY   = 111.6762

EPHEMERIS_TYPE = 0
CLASSIFICATION_TYPE = U
NORAD_CAT_ID   = 67848
ELEMENT_SET_NO = 999
REV_AT_EPOCH   = 539
BSTAR          = -.22828942E-1
MEAN_MOTION_DOT = -.1944808E-1
MEAN_MOTION_DDOT = 0

