STARLINK-36649          
1 67837U 26033S   26073.25002315 -.01949797  00000+0 -18469-1 0  9997
2 67837  42.9995 243.5950 0001781 274.8598 135.1114 15.69107048  5393
STARLINK-36654          
1 67838U 26033T   26073.25002315 -.01944440  00000+0 -20014-1 0  9997
2 67838  42.9995 243.6441 0001757 275.1701 114.9438 15.67094007  5395
STARLINK-36652          
1 67839U 26033U   26073.25002315 -.01946066  00000+0 -21474-1 0  9995
2 67839  42.9995 243.6915 0001844 270.3750 100.8214 15.65389571  5397
STARLINK-36651          
1 67840U 26033V   26073.25002315 -.01947052  00000+0 -20191-1 0  9998
2 67840  42.9995 243.6285 0001751 272.4670 123.8852 15.66916729  5395
STARLINK-36656          
1 67841U 26033W   26073.25002315 -.01952245  00000+0 -19353-1 0  9997
2 67841  42.9993 243.5837 0001684 275.2687 139.1527 15.68018464  5390
STARLINK-36653          
1 67842U 26033X   26073.25002315 -.01945401  00000+0 -20096-1 0  9990
2 67842  42.9997 243.6039 0001743 274.6626 131.4430 15.67008128  5395
STARLINK-36589          
1 67843U 26033Y   26073.25002315 -.01953379  00000+0 -19333-1 0  9996
2 67843  42.9995 243.5607 0001693 276.5133 146.9307 15.68059224  5390
STARLINK-36598          
1 67844U 26033Z   26073.25002315 -.01945211  00000+0 -21951-1 0  9992
2 67844  42.9993 243.6578 0001746 272.8733 111.6476 15.64835528  5392
STARLINK-36606          
1 67845U 26033AA  26073.25002315 -.01963023  00000+0 -16779-1 0  9996
2 67845  42.9992 243.4476 0001514 278.3846 190.4131 15.71560297  5395
STARLINK-36658          
1 67846U 26033AB  26073.25002315 -.01945250  00000+0 -21545-1 0  9996
2 67846  42.9997 243.6193 0001689 274.9315 124.8623 15.65298233  5393
STARLINK-36618          
1 67847U 26033AC  26073.00002315  .00078163  10604-4  24095-3 0  9998
2 67847  42.9786 242.2524 0002907 312.0221 166.4508 15.91465079  5350
STARLINK-36660          
1 67848U 26033AD  26073.25002315 -.01944808  00000+0 -22829-1 0  9992
2 67848  42.9994 243.6620 0001794 270.6301 111.6762 15.63851442  5395
